WORLDVIEW-3 (WV-3)      
1 40115U 14048A   26087.57673701  .00001026  00000+0  12698-3 0  9994
2 40115  97.8606 163.5174 0001394 155.6294 204.4987 14.84876919629946
GAOFEN-2                
1 40118U 14049A   26087.63327318  .00000526  00000+0  75151-4 0  9993
2 40118  98.0188 151.8953 0008378 127.3575 232.8401 14.80799222627311
YAOGAN-21               
1 40143U 14053A   26087.62761966  .00010479  00000+0  41938-3 0  9999
2 40143  97.1585 131.3495 0009030  30.0704 330.1051 15.25209271642673
YAOGAN-22               
1 40275U 14063A   26087.41943542 -.00000028  00000+0  50596-4 0  9996
2 40275 100.7582 237.3898 0006325  17.3791 342.7536 13.15528224549198
ASNARO                  
1 40298U 14070A   26087.55897088  .00013598  00000+0  63898-3 0  9990
2 40298  97.3488 165.8283 0007009 104.1569 256.0445 15.19697397631765
YAOGAN-24               
1 40310U 14072A   26087.62274427  .00001461  00000+0  21895-3 0  9998
2 40310  98.1339 224.3415 0014394 156.7225 203.4639 14.76104876611833
CBERS 4                 
1 40336U 14079A   26087.60212292  .00000250  00000+0  10160-3 0  9991
2 40336  98.3444 147.0061 0000273  56.6267 303.4945 14.35572360592395
YAOGAN-26               
1 40362U 14088A   26087.60147431  .00011140  00000+0  24556-3 0  9996
2 40362  97.0669  89.8830 0004428  17.0324 343.1073 15.44068071625252
SMAP                    
1 40376U 15003A   26087.60160278  .00000550  00000+0  11549-3 0  9994
2 40376  98.1308  95.8266 0001848 100.3278 259.8133 14.63361933595839
KOMPSAT-3A              
1 40536U 15014A   26087.58422312  .00031323  00000+0  51909-3 0  9997
2 40536  97.6879  73.3122 0064398 110.3319 250.4866 15.49713274609315
SENTINEL-2A             
1 40697U 15028A   26087.58537622  .00000321  00000+0  13898-3 0  9990
2 40697  98.5623 163.6011 0001318  94.9800 265.1533 14.30821091562201
GAOFEN-8                
1 40701U 15030A   26087.62199846  .00022951  00000+0  51897-3 0  9990
2 40701  97.6941 276.3183 0010325 122.5426 237.6820 15.43118825599013
CARBONITE 1 (CBNT-1)    
1 40718U 15032D   26087.57791218  .00002703  00000+0  33583-3 0  9990
2 40718  97.6481 269.0424 0014223 194.0003 166.0819 14.83304422577396
YAOGAN-27               
1 40878U 15040A   26087.59849082 -.00000430  00000+0 -10196-2 0  9992
2 40878 100.1127  77.4937 0008768  43.6596 316.5211 13.16065263507060
GAOFEN-9 01             
1 40894U 15047A   26087.62514013  .00001164  00000+0  14954-3 0  9994
2 40894  97.6377 126.9494 0028467  46.8193 313.5393 14.82727186568258
YAOGAN-28               
1 41026U 15064A   26087.58407735  .00008965  00000+0  34726-3 0  9993
2 41026  97.2932 227.6112 0012295 114.6132 245.6390 15.26316919578388
