[{"OBJECT_NAME":"WORLDVIEW-3 (WV-3)","OBJECT_ID":"2014-048A","EPOCH":"2026-03-28T13:50:30.077664","MEAN_MOTION":14.84876919,"ECCENTRICITY":0.00013945,"INCLINATION":97.8606,"RA_OF_ASC_NODE":163.5174,"ARG_OF_PERICENTER":155.6294,"MEAN_ANOMALY":204.4987,"EPHEMERIS_TYPE":0,"CLASSIFICATION_TYPE":"U","NORAD_CAT_ID":40115,"ELEMENT_SET_NO":999,"REV_AT_EPOCH":62994,"BSTAR":0.00012697835,"MEAN_MOTION_DOT":1.026e-5,"MEAN_MOTION_DDOT":0},{"OBJECT_NAME":"GAOFEN-2","OBJECT_ID":"2014-049A","EPOCH":"2026-03-28T15:11:54.802752","MEAN_MOTION":14.80799222,"ECCENTRICITY":0.00083784,"INCLINATION":98.0188,"RA_OF_ASC_NODE":151.8953,"ARG_OF_PERICENTER":127.3575,"MEAN_ANOMALY":232.8401,"EPHEMERIS_TYPE":0,"CLASSIFICATION_TYPE":"U","NORAD_CAT_ID":40118,"ELEMENT_SET_NO":999,"REV_AT_EPOCH":62731,"BSTAR":7.5151016e-5,"MEAN_MOTION_DOT":5.26e-6,"MEAN_MOTION_DDOT":0},{"OBJECT_NAME":"YAOGAN-21","OBJECT_ID":"2014-053A","EPOCH":"2026-03-28T15:03:46.338624","MEAN_MOTION":15.25209271,"ECCENTRICITY":0.00090304,"INCLINATION":97.1585,"RA_OF_ASC_NODE":131.3495,"ARG_OF_PERICENTER":30.0704,"MEAN_ANOMALY":330.1051,"EPHEMERIS_TYPE":0,"CLASSIFICATION_TYPE":"U","NORAD_CAT_ID":40143,"ELEMENT_SET_NO":999,"REV_AT_EPOCH":64267,"BSTAR":0.00041938439,"MEAN_MOTION_DOT":0.00010479,"MEAN_MOTION_DDOT":0},{"OBJECT_NAME":"YAOGAN-22","OBJECT_ID":"2014-063A","EPOCH":"2026-03-28T10:03:59.220288","MEAN_MOTION":13.15528224,"ECCENTRICITY":0.00063257,"INCLINATION":100.7582,"RA_OF_ASC_NODE":237.3898,"ARG_OF_PERICENTER":17.3791,"MEAN_ANOMALY":342.7536,"EPHEMERIS_TYPE":0,"CLASSIFICATION_TYPE":"U","NORAD_CAT_ID":40275,"ELEMENT_SET_NO":999,"REV_AT_EPOCH":54919,"BSTAR":5.0596346e-5,"MEAN_MOTION_DOT":-2.8e-7,"MEAN_MOTION_DDOT":0},{"OBJECT_NAME":"ASNARO","OBJECT_ID":"2014-070A","EPOCH":"2026-03-28T13:24:55.084032","MEAN_MOTION":15.19697397,"ECCENTRICITY":0.00070096,"INCLINATION":97.3488,"RA_OF_ASC_NODE":165.8283,"ARG_OF_PERICENTER":104.1569,"MEAN_ANOMALY":256.0445,"EPHEMERIS_TYPE":0,"CLASSIFICATION_TYPE":"U","NORAD_CAT_ID":40298,"ELEMENT_SET_NO":999,"REV_AT_EPOCH":63176,"BSTAR":0.0006389784,"MEAN_MOTION_DOT":0.00013598,"MEAN_MOTION_DDOT":0},{"OBJECT_NAME":"YAOGAN-24","OBJECT_ID":"2014-072A","EPOCH":"2026-03-28T14:56:45.104928","MEAN_MOTION":14.76104876,"ECCENTRICITY":0.00143944,"INCLINATION":98.1339,"RA_OF_ASC_NODE":224.3415,"ARG_OF_PERICENTER":156.7225,"MEAN_ANOMALY":203.4639,"EPHEMERIS_TYPE":0,"CLASSIFICATION_TYPE":"U","NORAD_CAT_ID":40310,"ELEMENT_SET_NO":999,"REV_AT_EPOCH":61183,"BSTAR":0.00021895037,"MEAN_MOTION_DOT":1.461e-5,"MEAN_MOTION_DDOT":0},{"OBJECT_NAME":"CBERS 4","OBJECT_ID":"2014-079A","EPOCH":"2026-03-28T14:27:03.420288","MEAN_MOTION":14.3557236,"ECCENTRICITY":2.738e-5,"INCLINATION":98.3444,"RA_OF_ASC_NODE":147.0061,"ARG_OF_PERICENTER":56.6267,"MEAN_ANOMALY":303.4945,"EPHEMERIS_TYPE":0,"CLASSIFICATION_TYPE":"U","NORAD_CAT_ID":40336,"ELEMENT_SET_NO":999,"REV_AT_EPOCH":59239,"BSTAR":0.00010159578,"MEAN_MOTION_DOT":2.5e-6,"MEAN_MOTION_DDOT":0},{"OBJECT_NAME":"YAOGAN-26","OBJECT_ID":"2014-088A","EPOCH":"2026-03-28T14:26:07.380384","MEAN_MOTION":15.44068071,"ECCENTRICITY":0.00044285,"INCLINATION":97.0669,"RA_OF_ASC_NODE":89.883,"ARG_OF_PERICENTER":17.0324,"MEAN_ANOMALY":343.1073,"EPHEMERIS_TYPE":0,"CLASSIFICATION_TYPE":"U","NORAD_CAT_ID":40362,"ELEMENT_SET_NO":999,"REV_AT_EPOCH":62525,"BSTAR":0.00024555684,"MEAN_MOTION_DOT":0.0001114,"MEAN_MOTION_DDOT":0},{"OBJECT_NAME":"SMAP","OBJECT_ID":"2015-003A","EPOCH":"2026-03-28T14:26:18.480192","MEAN_MOTION":14.63361933,"ECCENTRICITY":0.00018488,"INCLINATION":98.1308,"RA_OF_ASC_NODE":95.8266,"ARG_OF_PERICENTER":100.3278,"MEAN_ANOMALY":259.8133,"EPHEMERIS_TYPE":0,"CLASSIFICATION_TYPE":"U","NORAD_CAT_ID":40376,"ELEMENT_SET_NO":999,"REV_AT_EPOCH":59583,"BSTAR":0.00011549255,"MEAN_MOTION_DOT":5.5e-6,"MEAN_MOTION_DDOT":0},{"OBJECT_NAME":"KOMPSAT-3A","OBJECT_ID":"2015-014A","EPOCH":"2026-03-28T14:01:16.877568","MEAN_MOTION":15.49713274,"ECCENTRICITY":0.0064398,"INCLINATION":97.6879,"RA_OF_ASC_NODE":73.3122,"ARG_OF_PERICENTER":110.3319,"MEAN_ANOMALY":250.4866,"EPHEMERIS_TYPE":0,"CLASSIFICATION_TYPE":"U","NORAD_CAT_ID":40536,"ELEMENT_SET_NO":999,"REV_AT_EPOCH":60931,"BSTAR":0.00051908694,"MEAN_MOTION_DOT":0.00031323,"MEAN_MOTION_DDOT":0},{"OBJECT_NAME":"SENTINEL-2A","OBJECT_ID":"2015-028A","EPOCH":"2026-03-28T14:02:56.505408","MEAN_MOTION":14.30821091,"ECCENTRICITY":0.00013183,"INCLINATION":98.5623,"RA_OF_ASC_NODE":163.6011,"ARG_OF_PERICENTER":94.98,"MEAN_ANOMALY":265.1533,"EPHEMERIS_TYPE":0,"CLASSIFICATION_TYPE":"U","NORAD_CAT_ID":40697,"ELEMENT_SET_NO":999,"REV_AT_EPOCH":56220,"BSTAR":0.0001389828,"MEAN_MOTION_DOT":3.21e-6,"MEAN_MOTION_DDOT":0},{"OBJECT_NAME":"GAOFEN-8","OBJECT_ID":"2015-030A","EPOCH":"2026-03-28T14:55:40.666944","MEAN_MOTION":15.43118825,"ECCENTRICITY":0.00103252,"INCLINATION":97.6941,"RA_OF_ASC_NODE":276.3183,"ARG_OF_PERICENTER":122.5426,"MEAN_ANOMALY":237.682,"EPHEMERIS_TYPE":0,"CLASSIFICATION_TYPE":"U","NORAD_CAT_ID":40701,"ELEMENT_SET_NO":999,"REV_AT_EPOCH":59901,"BSTAR":0.00051896528,"MEAN_MOTION_DOT":0.00022951,"MEAN_MOTION_DDOT":0},{"OBJECT_NAME":"CARBONITE 1 (CBNT-1)","OBJECT_ID":"2015-032D","EPOCH":"2026-03-28T13:52:11.612352","MEAN_MOTION":14.83304422,"ECCENTRICITY":0.00142239,"INCLINATION":97.6481,"RA_OF_ASC_NODE":269.0424,"ARG_OF_PERICENTER":194.0003,"MEAN_ANOMALY":166.0819,"EPHEMERIS_TYPE":0,"CLASSIFICATION_TYPE":"U","NORAD_CAT_ID":40718,"ELEMENT_SET_NO":999,"REV_AT_EPOCH":57739,"BSTAR":0.00033582883,"MEAN_MOTION_DOT":2.703e-5,"MEAN_MOTION_DDOT":0},{"OBJECT_NAME":"YAOGAN-27","OBJECT_ID":"2015-040A","EPOCH":"2026-03-28T14:21:49.606848","MEAN_MOTION":13.16065263,"ECCENTRICITY":0.00087688,"INCLINATION":100.1127,"RA_OF_ASC_NODE":77.4937,"ARG_OF_PERICENTER":43.6596,"MEAN_ANOMALY":316.5211,"EPHEMERIS_TYPE":0,"CLASSIFICATION_TYPE":"U","NORAD_CAT_ID":40878,"ELEMENT_SET_NO":999,"REV_AT_EPOCH":50706,"BSTAR":-0.0010196394,"MEAN_MOTION_DOT":-4.3e-6,"MEAN_MOTION_DDOT":0},{"OBJECT_NAME":"GAOFEN-9 01","OBJECT_ID":"2015-047A","EPOCH":"2026-03-28T15:00:12.107232","MEAN_MOTION":14.82727186,"ECCENTRICITY":0.00284676,"INCLINATION":97.6377,"RA_OF_ASC_NODE":126.9494,"ARG_OF_PERICENTER":46.8193,"MEAN_ANOMALY":313.5393,"EPHEMERIS_TYPE":0,"CLASSIFICATION_TYPE":"U","NORAD_CAT_ID":40894,"ELEMENT_SET_NO":999,"REV_AT_EPOCH":56825,"BSTAR":0.00014953566,"MEAN_MOTION_DOT":1.164e-5,"MEAN_MOTION_DDOT":0},{"OBJECT_NAME":"YAOGAN-28","OBJECT_ID":"2015-064A","EPOCH":"2026-03-28T14:01:04.283040","MEAN_MOTION":15.26316919,"ECCENTRICITY":0.00122955,"INCLINATION":97.2932,"RA_OF_ASC_NODE":227.6112,"ARG_OF_PERICENTER":114.6132,"MEAN_ANOMALY":245.639,"EPHEMERIS_TYPE":0,"CLASSIFICATION_TYPE":"U","NORAD_CAT_ID":41026,"ELEMENT_SET_NO":999,"REV_AT_EPOCH":57838,"BSTAR":0.00034725862,"MEAN_MOTION_DOT":8.965e-5,"MEAN_MOTION_DDOT":0}]
